OBJECT_NAME,OBJECT_ID,EPOCH,MEAN_MOTION,ECCENTRICITY,INCLINATION,RA_OF_ASC_NODE,ARG_OF_PERICENTER,MEAN_ANOMALY,EPHEMERIS_TYPE,CLASSIFICATION_TYPE,NORAD_CAT_ID,ELEMENT_SET_NO,REV_AT_EPOCH,BSTAR,MEAN_MOTION_DOT,MEAN_MOTION_DDOT
FENGYUN 3D,2017-072A,2026-06-18T15:03:21.345696,14.19739733,.00025187,99.0128,144.0761,60.3277,299.8149,0,U,43010,999,44519,.88264038E-4,.141E-5,0
NOAA 20 (JPSS-1),2017-073A,2026-06-18T13:14:55.779936,14.19511933,.00003088,98.7770,109.0025,107.8693,252.2517,0,U,43013,999,44466,.38608673E-4,.37E-6,0
GOES 17,2018-022A,2026-06-18T14:12:30.155616,1.00269560,.00004911,0.9417,85.6823,29.5169,275.2338,0,U,43226,999,3043,0,-.189E-5,0
SENTINEL-3B,2018-039A,2026-06-18T14:12:55.361952,14.26735069,.00007222,98.6249,237.1045,91.3758,268.7505,0,U,43437,999,42432,.49671329E-4,.77E-6,0
FENGYUN 2H,2018-050A,2026-06-18T15:00:36.694944,1.00269447,.00019671,3.0356,79.0525,138.2508,354.1055,0,U,43491,999,2945,0,-.137E-5,0
METOP-C,2018-087A,2026-06-18T14:47:51.626400,14.21512496,.00018141,98.6645,229.1941,127.6744,232.4598,0,U,43689,999,39503,.57450217E-4,.82E-6,0
GEO-KOMPSAT-2A,2018-100A,2026-06-18T15:02:51.689760,1.00269254,.00018491,0.0492,157.8937,289.7421,173.1968,0,U,43823,999,2764,0,-.35E-5,0
METEOR-M2 2,2019-038A,2026-06-18T13:54:15.758784,14.24366772,.00020364,98.9143,156.8857,44.8123,315.3219,0,U,44387,999,36149,.96212934E-4,.177E-5,0
ARKTIKA-M 1,2021-016A,2026-06-17T11:46:36.471360,2.00622504,.72885287,63.2922,57.5948,269.9420,14.6012,0,U,47719,999,3879,0,-.21E-5,0
FENGYUN 3E,2021-062A,2026-06-18T14:39:53.428320,14.19904260,.00028392,98.7488,173.0033,82.9785,277.1714,0,U,49008,999,25678,-.29051932E-4,-.106E-5,0
GOES 18,2022-021A,2026-06-18T13:58:53.959872,1.00271167,.00003373,0.0077,73.6037,71.6585,194.2700,0,U,51850,999,660,0,.9E-6,0
NOAA 21 (JPSS-2),2022-150A,2026-06-18T14:02:14.172864,14.19565657,.00017502,98.7058,108.3507,150.7122,209.4152,0,U,54234,999,18674,.41813502E-4,.45E-6,0
METEOSAT-12 (MTG-I1),2022-170C,2026-06-18T07:47:13.527168,1.00272916,.00032147,0.7400,23.2065,71.0428,288.7161,0,U,54743,999,1298,0,-.14E-6,0
TIANMU-1 03,2023-039A,2026-06-18T14:27:16.914240,15.47317914,.00041648,97.5236,343.6262,95.6152,264.5573,0,U,55973,999,18105,.23237175E-3,.11771E-3,0
TIANMU-1 04,2023-039B,2026-06-18T15:44:25.852128,15.47917921,.00048437,97.5171,342.8358,91.9365,268.2440,0,U,55974,999,18107,.23854549E-3,.12343E-3,0
TIANMU-1 05,2023-039C,2026-06-18T13:59:40.704000,15.47243904,.00040317,97.5219,343.2207,111.8397,248.3282,0,U,55975,999,18103,.22820857E-3,.11528E-3,0
TIANMU-1 06,2023-039D,2026-06-18T14:16:19.940736,15.47820110,.00043837,97.5224,343.8700,107.1202,253.0528,0,U,55976,999,18106,.23315684E-3,.1202E-3,0
FENGYUN 3G,2023-055A,2026-06-18T14:04:49.639296,15.52683224,.00070304,49.9937,338.8093,302.3922,57.6364,0,U,56232,999,18022,.30569922E-3,.18824E-3,0
METEOR-M2 3,2023-091A,2026-06-18T15:27:42.519168,14.24047010,.00044232,98.6090,224.5928,151.7298,208.4122,0,U,57166,999,15472,.30908865E-4,.28E-6,0
TIANMU-1 07,2023-101A,2026-06-18T14:30:33.931296,15.29821124,.00041553,97.2587,220.2404,118.6454,241.5205,0,U,57399,999,16186,.1716245E-3,.4883E-4,0
TIANMU-1 08,2023-101B,2026-06-18T13:42:31.451040,15.29825797,.00056343,97.2576,219.9783,111.8495,248.3346,0,U,57400,999,16185,.17466926E-3,.4973E-4,0
TIANMU-1 09,2023-101C,2026-06-18T14:52:47.307936,15.29857596,.00046592,97.2533,219.4410,123.4443,236.7244,0,U,57401,999,16186,.17595354E-3,.5014E-4,0
TIANMU-1 10,2023-101D,2026-06-18T14:06:13.850784,15.29829016,.00062302,97.2613,220.4613,122.6643,237.5200,0,U,57402,999,16185,.17925892E-3,.5106E-4,0
FENGYUN 3F,2023-111A,2026-06-18T14:16:41.090592,14.19939369,.00015878,98.6836,239.5774,92.4919,267.6440,0,U,57490,999,14906,.43212512E-4,.48E-6,0
ARKTIKA-M 2,2023-198A,2026-06-17T18:13:15.259296,2.00612717,.69023443,63.2243,154.2920,267.4286,18.7609,0,U,58584,999,1833,0,.145E-5,0
TIANMU-1 11,2023-205A,2026-06-18T15:01:45.649056,15.27008025,.00087764,97.3443,191.1605,12.4102,347.7352,0,U,58645,999,13774,.16608343E-3,.4333E-4,0
TIANMU-1 12,2023-205B,2026-06-18T14:19:08.103648,15.26972789,.00065547,97.3431,190.8868,358.6819,1.4402,0,U,58646,999,13772,.17443029E-3,.4547E-4,0
TIANMU-1 13,2023-205C,2026-06-18T15:05:40.229376,15.26826280,.00057305,97.3460,191.1914,335.8013,24.2956,0,U,58647,999,13772,.16928274E-3,.4391E-4,0
TIANMU-1 14,2023-205D,2026-06-18T14:44:18.432672,15.26870894,.00066779,97.3395,190.3575,340.0627,20.0350,0,U,58648,999,13772,.17366699E-3,.4513E-4,0
TIANMU-1 19,2023-208A,2026-06-18T14:14:51.218304,15.31591036,.00037294,97.4510,285.9004,321.9176,38.1801,0,U,58660,999,13754,.21235027E-3,.64E-4,0
