FENGYUN 3D              
1 43010U 17072A   26169.62733039  .00000141  00000+0  88264-4 0  9999
2 43010  99.0128 144.0761 0002518  60.3277 299.8149 14.19739733445195
NOAA 20 (JPSS-1)        
1 43013U 17073A   26169.55203449  .00000037  00000+0  38609-4 0  9994
2 43013  98.7770 109.0025 0000308 107.8693 252.2517 14.19511933444668
GOES 17                 
1 43226U 18022A   26169.59201569 -.00000189  00000+0  00000+0 0  9998
2 43226   0.9417  85.6823 0000491  29.5169 275.2338  1.00269560 30437
SENTINEL-3B             
1 43437U 18039A   26169.59230743  .00000077  00000+0  49671-4 0  9993
2 43437  98.6249 237.1045 0000722  91.3758 268.7505 14.26735069424328
FENGYUN 2H              
1 43491U 18050A   26169.62542471 -.00000137  00000+0  00000+0 0  9990
2 43491   3.0356  79.0525 0001967 138.2508 354.1055  1.00269447 29454
METOP-C                 
1 43689U 18087A   26169.61656975  .00000082  00000+0  57450-4 0  9997
2 43689  98.6645 229.1941 0001814 127.6744 232.4598 14.21512496395031
GEO-KOMPSAT-2A          
1 43823U 18100A   26169.62698715 -.00000350  00000+0  00000+0 0  9995
2 43823   0.0492 157.8937 0001849 289.7421 173.1968  1.00269254 27645
METEOR-M2 2             
1 44387U 19038A   26169.57934906  .00000177  00000+0  96213-4 0  9993
2 44387  98.9143 156.8857 0002036  44.8123 315.3219 14.24366772361494
ARKTIKA-M 1             
1 47719U 21016A   26168.49069990 -.00000210  00000+0  00000+0 0  9999
2 47719  63.2922  57.5948 7288528 269.9420  14.6012  2.00622504 38796
FENGYUN 3E              
1 49008U 21062A   26169.61103505 -.00000106  00000+0 -29052-4 0  9997
2 49008  98.7488 173.0033 0002839  82.9785 277.1714 14.19904260256788
GOES 18                 
1 51850U 22021A   26169.58256898  .00000090  00000+0  00000+0 0  9998
2 51850   0.0077  73.6037 0000337  71.6585 194.2700  1.00271167  6606
NOAA 21 (JPSS-2)        
1 54234U 22150A   26169.58488626  .00000045  00000+0  41814-4 0  9999
2 54234  98.7058 108.3507 0001750 150.7122 209.4152 14.19565657186740
METEOSAT-12 (MTG-I1)    
1 54743U 22170C   26169.32446212 -.00000014  00000+0  00000+0 0  9997
2 54743   0.7400  23.2065 0003214  71.0428 288.7161  1.00272916 12987
TIANMU-1 03             
1 55973U 23039A   26169.60227910  .00011771  00000+0  23237-3 0  9993
2 55973  97.5236 343.6262 0004164  95.6152 264.5573 15.47317914181051
TIANMU-1 04             
1 55974U 23039B   26169.65585477  .00012343  00000+0  23855-3 0  9996
2 55974  97.5171 342.8358 0004843  91.9365 268.2440 15.47917921181076
TIANMU-1 05             
1 55975U 23039C   26169.58311000  .00011528  00000+0  22821-3 0  9994
2 55975  97.5219 343.2207 0004031 111.8397 248.3282 15.47243904181036
TIANMU-1 06             
1 55976U 23039D   26169.59467524  .00012020  00000+0  23316-3 0  9997
2 55976  97.5224 343.8700 0004383 107.1202 253.0528 15.47820110181069
FENGYUN 3G              
1 56232U 23055A   26169.58668564  .00018824  00000+0  30570-3 0  9995
2 56232  49.9937 338.8093 0007030 302.3922  57.6364 15.52683224180228
METEOR-M2 3             
1 57166U 23091A   26169.64424212  .00000028  00000+0  30909-4 0  9993
2 57166  98.6090 224.5928 0004423 151.7298 208.4122 14.24047010154728
TIANMU-1 07             
1 57399U 23101A   26169.60455939  .00004883  00000+0  17162-3 0  9997
2 57399  97.2587 220.2404 0004155 118.6454 241.5205 15.29821124161867
TIANMU-1 08             
1 57400U 23101B   26169.57119735  .00004973  00000+0  17467-3 0  9995
2 57400  97.2576 219.9783 0005634 111.8495 248.3346 15.29825797161856
TIANMU-1 09             
1 57401U 23101C   26169.61999199  .00005014  00000+0  17595-3 0  9990
2 57401  97.2533 219.4410 0004659 123.4443 236.7244 15.29857596161861
TIANMU-1 10             
1 57402U 23101D   26169.58766031  .00005106  00000+0  17926-3 0  9994
2 57402  97.2613 220.4613 0006230 122.6643 237.5200 15.29829016161854
FENGYUN 3F              
1 57490U 23111A   26169.59492003  .00000048  00000+0  43213-4 0  9997
2 57490  98.6836 239.5774 0001587  92.4919 267.6440 14.19939369149062
ARKTIKA-M 2             
1 58584U 23198A   26168.75920439  .00000145  00000+0  00000+0 0  9993
2 58584  63.2243 154.2920 6902344 267.4286  18.7609  2.00612717 18330
TIANMU-1 11             
1 58645U 23205A   26169.62622279  .00004333  00000+0  16608-3 0  9996
2 58645  97.3443 191.1605 0008776  12.4102 347.7352 15.27008025137744
TIANMU-1 12             
1 58646U 23205B   26169.59662157  .00004547  00000+0  17443-3 0  9997
2 58646  97.3431 190.8868 0006554 358.6819   1.4402 15.26972789137725
TIANMU-1 13             
1 58647U 23205C   26169.62893784  .00004391  00000+0  16928-3 0  9998
2 58647  97.3460 191.1914 0005730 335.8013  24.2956 15.26826280137723
TIANMU-1 14             
1 58648U 23205D   26169.61410223  .00004513  00000+0  17367-3 0  9995
2 58648  97.3395 190.3575 0006677 340.0627  20.0350 15.26870894137727
TIANMU-1 19             
1 58660U 23208A   26169.59364836  .00006400  00000+0  21235-3 0  9993
2 58660  97.4510 285.9004 0003729 321.9176  38.1801 15.31591036137546
